1 43013U 17073A   25308.78693991  .00000099  00000+0  67817-4 0  9999
2 43013  98.7535 245.5104 0001174 140.7636 219.3626 14.19509767412635
